HELIOS 2A               
1 28492U 04049A   24360.17478593  .00005530  00000+0  45317-3 0  9996
2 28492  98.3267   6.4403 0008458 305.1709  54.8720 14.99702666 72903
SPIRALE A               
1 33751U 09008C   24359.61425896  .00003365  00000+0  22668-2 0  9992
2 33751   2.0969  84.3391 5566662 223.2887  75.8726  4.60676380237178
SPIRALE B               
1 33752U 09008D   24351.46588261  .00012231  00000+0  19986-2 0  9995
2 33752   2.0882 333.4293 6747567  78.6868 345.2406  2.98771761151496
SAPPHIRE                
1 39088U 13009C   24359.79981340  .00000451  00000+0  17349-3 0  9991
2 39088  98.4075 181.6315 0012229  58.2893 301.9483 14.34932333619211
